{"fetched_at":"2026-07-17T06:37:49.595Z","source":"https://celestrak.org/NORAD/elements/gp.php?GROUP=kuiper&FORMAT=JSON","constellation":"kuiper","records":[{"OBJECT_NAME":"KUIPER-00279","OBJECT_ID":"2026-030AH","EPOCH":"2026-07-16T16:07:07.371840","CLASSIFICATION_TYPE":"U","MEAN_MOTION":14.79933442,"ECCENTRICITY":0.0000657,"INCLINATION":51.9044,"RA_OF_ASC_NODE":327.782,"ARG_OF_PERICENTER":196.4822,"MEAN_ANOMALY":163.6119,"EPHEMERIS_TYPE":0,"NORAD_CAT_ID":67795,"ELEMENT_SET_NO":999,"REV_AT_EPOCH":2476,"BSTAR":0.00029836,"MEAN_MOTION_DOT":0.00002054,"MEAN_MOTION_DDOT":0},{"OBJECT_NAME":"KUIPER-00131","OBJECT_ID":"2026-072A","EPOCH":"2026-07-16T01:26:22.126848","CLASSIFICATION_TYPE":"U","MEAN_MOTION":14.79929082,"ECCENTRICITY":0.00007843,"INCLINATION":51.9014,"RA_OF_ASC_NODE":67.9734,"ARG_OF_PERICENTER":107.4393,"MEAN_ANOMALY":252.6655,"EPHEMERIS_TYPE":0,"NORAD_CAT_ID":68573,"ELEMENT_SET_NO":999,"REV_AT_EPOCH":1539,"BSTAR":0.000017351643,"MEAN_MOTION_DOT":-8.9e-7,"MEAN_MOTION_DDOT":0},{"OBJECT_NAME":"KUIPER-00189","OBJECT_ID":"2026-072B","EPOCH":"2026-07-16T18:23:31.574688","CLASSIFICATION_TYPE":"U","MEAN_MOTION":14.79938126,"ECCENTRICITY":0.0000898,"INCLINATION":51.9001,"RA_OF_ASC_NODE":67.3353,"ARG_OF_PERICENTER":109.8253,"MEAN_ANOMALY":250.2806,"EPHEMERIS_TYPE":0,"NORAD_CAT_ID":68574,"ELEMENT_SET_NO":999,"REV_AT_EPOCH":1546,"BSTAR":0.0002276,"MEAN_MOTION_DOT":0.00001514,"MEAN_MOTION_DDOT":0},{"OBJECT_NAME":"KUIPER-00192","OBJECT_ID":"2026-072C","EPOCH":"2026-07-16T07:59:13.120800","CLASSIFICATION_TYPE":"U","MEAN_MOTION":14.79930688,"ECCENTRICITY":0.0000894,"INCLINATION":51.9012,"RA_OF_ASC_NODE":64.2632,"ARG_OF_PERICENTER":115.3856,"MEAN_ANOMALY":244.7199,"EPHEMERIS_TYPE":0,"NORAD_CAT_ID":68575,"ELEMENT_SET_NO":999,"REV_AT_EPOCH":1547,"BSTAR":0.000064418,"MEAN_MOTION_DOT":0.0000027,"MEAN_MOTION_DDOT":0},{"OBJECT_NAME":"KUIPER-00193","OBJECT_ID":"2026-072D","EPOCH":"2026-07-16T20:00:01.999008","CLASSIFICATION_TYPE":"U","MEAN_MOTION":14.80192084,"ECCENTRICITY":0.0001974,"INCLINATION":51.9045,"RA_OF_ASC_NODE":52.0728,"ARG_OF_PERICENTER":327.3596,"MEAN_ANOMALY":122.2165,"EPHEMERIS_TYPE":0,"NORAD_CAT_ID":68576,"ELEMENT_SET_NO":999,"REV_AT_EPOCH":266,"BSTAR":-0.0032745,"MEAN_MOTION_DOT":-0.00025246,"MEAN_MOTION_DDOT":0},{"OBJECT_NAME":"KUIPER-00194","OBJECT_ID":"2026-072E","EPOCH":"2026-07-15T23:08:14.911008","CLASSIFICATION_TYPE":"U","MEAN_MOTION":14.79926692,"ECCENTRICITY":0.00008633,"INCLINATION":51.9027,"RA_OF_ASC_NODE":63.4088,"ARG_OF_PERICENTER":142.4634,"MEAN_ANOMALY":217.6389,"EPHEMERIS_TYPE":0,"NORAD_CAT_ID":68577,"ELEMENT_SET_NO":999,"REV_AT_EPOCH":1545,"BSTAR":0.00023130258,"MEAN_MOTION_DOT":0.00001542,"MEAN_MOTION_DDOT":0},{"OBJECT_NAME":"KUIPER-00229","OBJECT_ID":"2026-072F","EPOCH":"2026-07-16T00:37:44.590656","CLASSIFICATION_TYPE":"U","MEAN_MOTION":14.79926677,"ECCENTRICITY":0.00011545,"INCLINATION":51.902,"RA_OF_ASC_NODE":68.1197,"ARG_OF_PERICENTER":129.1677,"MEAN_ANOMALY":230.9388,"EPHEMERIS_TYPE":0,"NORAD_CAT_ID":68578,"ELEMENT_SET_NO":999,"REV_AT_EPOCH":1539,"BSTAR":0.000065767655,"MEAN_MOTION_DOT":0.0000028,"MEAN_MOTION_DDOT":0},{"OBJECT_NAME":"KUIPER-00230","OBJECT_ID":"2026-072G","EPOCH":"2026-07-15T20:07:57.763200","CLASSIFICATION_TYPE":"U","MEAN_MOTION":15.3866977,"ECCENTRICITY":0.00032474,"INCLINATION":51.8768,"RA_OF_ASC_NODE":37.9859,"ARG_OF_PERICENTER":118.5656,"MEAN_ANOMALY":241.5658,"EPHEMERIS_TYPE":0,"NORAD_CAT_ID":68579,"ELEMENT_SET_NO":999,"REV_AT_EPOCH":1579,"BSTAR":0.00055178306,"MEAN_MOTION_DOT":0.00021079,"MEAN_MOTION_DDOT":0},{"OBJECT_NAME":"KUIPER-00231","OBJECT_ID":"2026-072H","EPOCH":"2026-07-16T20:00:01.999008","CLASSIFICATION_TYPE":"U","MEAN_MOTION":14.89319775,"ECCENTRICITY":0.0001144,"INCLINATION":51.8987,"RA_OF_ASC_NODE":37.1204,"ARG_OF_PERICENTER":273.9948,"MEAN_ANOMALY":296.2162,"EPHEMERIS_TYPE":0,"NORAD_CAT_ID":68580,"ELEMENT_SET_NO":999,"REV_AT_EPOCH":586,"BSTAR":-0.0056314,"MEAN_MOTION_DOT":-0.00053754,"MEAN_MOTION_DDOT":0},{"OBJECT_NAME":"KUIPER-00234","OBJECT_ID":"2026-072J","EPOCH":"2026-07-16T20:00:01.999008","CLASSIFICATION_TYPE":"U","MEAN_MOTION":14.7965549,"ECCENTRICITY":0.0000867,"INCLINATION":51.8996,"RA_OF_ASC_NODE":59.5415,"ARG_OF_PERICENTER":227.5212,"MEAN_ANOMALY":267.475,"EPHEMERIS_TYPE":0,"NORAD_CAT_ID":68581,"ELEMENT_SET_NO":999,"REV_AT_EPOCH":394,"BSTAR":0.0051429,"MEAN_MOTION_DOT":0.00038954,"MEAN_MOTION_DDOT":0},{"OBJECT_NAME":"KUIPER-00236","OBJECT_ID":"2026-072K","EPOCH":"2026-07-15T20:39:22.677696","CLASSIFICATION_TYPE":"U","MEAN_MOTION":15.38166391,"ECCENTRICITY":0.0003097,"INCLINATION":51.8769,"RA_OF_ASC_NODE":38.131,"ARG_OF_PERICENTER":117.0097,"MEAN_ANOMALY":243.1207,"EPHEMERIS_TYPE":0,"NORAD_CAT_ID":68582,"ELEMENT_SET_NO":999,"REV_AT_EPOCH":1579,"BSTAR":0.00039322,"MEAN_MOTION_DOT":0.00014647,"MEAN_MOTION_DDOT":0},{"OBJECT_NAME":"KUIPER-00244","OBJECT_ID":"2026-072L","EPOCH":"2026-07-16T13:58:59.544768","CLASSIFICATION_TYPE":"U","MEAN_MOTION":14.79927488,"ECCENTRICITY":0.0001432,"INCLINATION":51.9015,"RA_OF_ASC_NODE":50.6742,"ARG_OF_PERICENTER":124.6433,"MEAN_ANOMALY":235.4664,"EPHEMERIS_TYPE":0,"NORAD_CAT_ID":68583,"ELEMENT_SET_NO":999,"REV_AT_EPOCH":1568,"BSTAR":0.00022567,"MEAN_MOTION_DOT":0.00001499,"MEAN_MOTION_DDOT":0},{"OBJECT_NAME":"KUIPER-00253","OBJECT_ID":"2026-072M","EPOCH":"2026-07-15T23:19:55.196832","CLASSIFICATION_TYPE":"U","MEAN_MOTION":14.79935829,"ECCENTRICITY":0.00006901,"INCLINATION":51.9049,"RA_OF_ASC_NODE":55.8777,"ARG_OF_PERICENTER":110.078,"MEAN_ANOMALY":250.0257,"EPHEMERIS_TYPE":0,"NORAD_CAT_ID":68584,"ELEMENT_SET_NO":999,"REV_AT_EPOCH":1555,"BSTAR":0.00025163738,"MEAN_MOTION_DOT":0.00001698,"MEAN_MOTION_DDOT":0},{"OBJECT_NAME":"KUIPER-00254","OBJECT_ID":"2026-072N","EPOCH":"2026-07-16T14:39:50.535648","CLASSIFICATION_TYPE":"U","MEAN_MOTION":14.79932079,"ECCENTRICITY":0.0001898,"INCLINATION":51.904,"RA_OF_ASC_NODE":55.5539,"ARG_OF_PERICENTER":115.1347,"MEAN_ANOMALY":244.9812,"EPHEMERIS_TYPE":0,"NORAD_CAT_ID":68585,"ELEMENT_SET_NO":999,"REV_AT_EPOCH":1561,"BSTAR":0.000076719,"MEAN_MOTION_DOT":0.00000363,"MEAN_MOTION_DDOT":0},{"OBJECT_NAME":"KUIPER-00263","OBJECT_ID":"2026-072P","EPOCH":"2026-07-16T20:00:01.999008","CLASSIFICATION_TYPE":"U","MEAN_MOTION":14.81648146,"ECCENTRICITY":0.0002836,"INCLINATION":51.9016,"RA_OF_ASC_NODE":39.6578,"ARG_OF_PERICENTER":26.4768,"MEAN_ANOMALY":346.3315,"EPHEMERIS_TYPE":0,"NORAD_CAT_ID":68586,"ELEMENT_SET_NO":999,"REV_AT_EPOCH":583,"BSTAR":-0.0094979,"MEAN_MOTION_DOT":-0.00074835,"MEAN_MOTION_DDOT":0},{"OBJECT_NAME":"KUIPER-00269","OBJECT_ID":"2026-072Q","EPOCH":"2026-07-16T20:00:01.999008","CLASSIFICATION_TYPE":"U","MEAN_MOTION":14.79953259,"ECCENTRICITY":0.0000523,"INCLINATION":51.8997,"RA_OF_ASC_NODE":42.0641,"ARG_OF_PERICENTER":68.1066,"MEAN_ANOMALY":325.1708,"EPHEMERIS_TYPE":0,"NORAD_CAT_ID":68587,"ELEMENT_SET_NO":999,"REV_AT_EPOCH":555,"BSTAR":-0.0025085,"MEAN_MOTION_DOT":-0.00019298,"MEAN_MOTION_DDOT":0}]}
