KUIPER-00279            
1 67795U 26030AH  26197.67161310  .00002054  00000+0  29836-3 0  9996
2 67795  51.9044 327.7820 0000657 196.4822 163.6119 14.79933442 24760
KUIPER-00131            
1 68573U 26072A   26197.05997832 -.00000089  00000+0  17352-4 0  9993
2 68573  51.9014  67.9734 0000784 107.4393 252.6655 14.79929082 15393
KUIPER-00189            
1 68574U 26072B   26197.76633767  .00001514  00000+0  22760-3 0  9997
2 68574  51.9001  67.3353 0000898 109.8253 250.2806 14.79938126 15467
KUIPER-00192            
1 68575U 26072C   26197.33279075  .00000270  00000+0  64418-4 0  9994
2 68575  51.9012  64.2632 0000894 115.3856 244.7199 14.79930688 15472
KUIPER-00193            
1 68576U 26072D   26197.83335647 -.00025246  00000+0 -32745-2 0  9996
2 68576  51.9045  52.0728 0001974 327.3596 122.2165 14.80192084  2668
KUIPER-00194            
1 68577U 26072E   26196.96406147  .00001542  00000+0  23130-3 0  9994
2 68577  51.9027  63.4088 0000863 142.4634 217.6389 14.79926692 15455
KUIPER-00229            
1 68578U 26072F   26197.02621054  .00000280  00000+0  65768-4 0  9991
2 68578  51.9020  68.1197 0001154 129.1677 230.9388 14.79926677 15398
KUIPER-00230            
1 68579U 26072G   26196.83886300  .00021079  00000+0  55178-3 0  9999
2 68579  51.8768  37.9859 0003247 118.5656 241.5658 15.38669770 15796
KUIPER-00231            
1 68580U 26072H   26197.83335647 -.00053754  00000+0 -56314-2 0  9994
2 68580  51.8987  37.1204 0001144 273.9948 296.2162 14.89319775  5867
KUIPER-00234            
1 68581U 26072J   26197.83335647  .00038954  00000+0  51429-2 0  9990
2 68581  51.8996  59.5415 0000867 227.5212 267.4750 14.79655490  3946
KUIPER-00236            
1 68582U 26072K   26196.86067914  .00014647  00000+0  39322-3 0  9994
2 68582  51.8769  38.1310 0003097 117.0097 243.1207 15.38166391 15791
KUIPER-00244            
1 68583U 26072L   26197.58263362  .00001499  00000+0  22567-3 0  9994
2 68583  51.9015  50.6742 0001432 124.6433 235.4664 14.79927488 15689
KUIPER-00253            
1 68584U 26072M   26196.97216663  .00001698  00000+0  25164-3 0  9996
2 68584  51.9049  55.8777 0000690 110.0780 250.0257 14.79935829 15556
KUIPER-00254            
1 68585U 26072N   26197.61100157  .00000363  00000+0  76719-4 0  9990
2 68585  51.9040  55.5539 0001898 115.1347 244.9812 14.79932079 15617
KUIPER-00263            
1 68586U 26072P   26197.83335647 -.00074835  00000+0 -94979-2 0  9992
2 68586  51.9016  39.6578 0002836  26.4768 346.3315 14.81648146  5831
KUIPER-00269            
1 68587U 26072Q   26197.83335647 -.00019298  00000+0 -25085-2 0  9997
2 68587  51.8997  42.0641 0000523  68.1066 325.1708 14.79953259  5554
